STARLINK-36570          
1 67640U 26020Z   26045.58335647 -.00080962  00000+0 -49916-3 0  9999
2 67640  42.9986 282.3710 0002196 232.9839  63.2816 15.76353418  3675
STARLINK-36514          
1 67641U 26020AA  26045.64732838  .00507169  00000+0  22473-2 0  9999
2 67641  42.9973 281.8317 0002508 221.8782 138.1898 15.82258942  2450
STARLINK-36556          
1 67642U 26020AB  26045.14171120 -.00432083  00000+0 -22104-2 0  9991
2 67642  42.9972 284.9215 0002591 258.5613 101.4968 15.81451029  2375
STARLINK-36533          
1 67643U 26020AC  26045.58335647 -.00057171  00000+0 -35048-3 0  9999
2 67643  42.9982 282.4015 0001532 269.7476  14.0632 15.76364473  3674
STARLINK-36623          
1 67644U 26020AD  26045.58335647  .00079284  00000+0  48665-3 0  9996
2 67644  42.9986 282.3073 0001864 243.5360  77.6119 15.76303558  3674
STARLINK-36619          
1 67645U 26020AE  26045.58335647 -.00022046  00000+0 -13285-3 0  9993
2 67645  42.9987 282.2761 0001539 257.7141  75.8613 15.76347243  3670
ALSAT-3B                
1 67646U 26021A   26045.59556431  .00006343  00000+0  26757-3 0  9990
2 67646  97.4718 120.0318 0011998 210.9081 149.1451 15.23591460  2206
CZ-2C R/B               
1 67647U 26021B   26045.59850428  .00011586  00000+0  35044-3 0  9998
2 67647  97.6561 120.6024 0153725  91.4869 270.3982 15.23449907  2187
STARLINK-36719          
1 67648U 26022A   26045.58335647 -.01910686  00000+0 -11991-1 0  9995
2 67648  97.2825  78.4053 0001599 109.3490 135.3397 15.79757872  3173
STARLINK-36342          
1 67649U 26022B   26045.58335647 -.01919758  00000+0 -12087-1 0  9992
2 67649  97.2824  78.4063 0001865  96.4513 152.4912 15.79698763  3178
STARLINK-36703          
1 67650U 26022C   26045.58335647 -.01911385  00000+0 -11979-1 0  9991
2 67650  97.2823  78.4086 0001555  90.5192 164.0544 15.79788536  3176
STARLINK-36696          
1 67651U 26022D   26045.58335647 -.01918369  00000+0 -11559-1 0  9995
2 67651  97.2820  78.4110 0001566  78.3841 182.4988 15.80655909  3174
