CCSDS_OMM_VERS = 2.0
CREATION_DATE  = 
ORIGINATOR     = 

OBJECT_NAME    = STARLINK-36570
OBJECT_ID      = 2026-020Z
CENTER_NAME    = EARTH
REF_FRAME      = TEME
TIME_SYSTEM    = UTC
MEAN_ELEMENT_THEORY = SGP/SGP4

EPOCH          = 2026-02-14T14:00:01.999008
MEAN_MOTION    = 15.76353418
ECCENTRICITY   = .0002196
INCLINATION    = 42.9986
RA_OF_ASC_NODE = 282.3710
ARG_OF_PERICENTER = 232.9839
MEAN_ANOMALY   = 63.2816

EPHEMERIS_TYPE = 0
CLASSIFICATION_TYPE = U
NORAD_CAT_ID   = 67640
ELEMENT_SET_NO = 999
REV_AT_EPOCH   = 367
BSTAR          = -.49916E-3
MEAN_MOTION_DOT = -.80962E-3
MEAN_MOTION_DDOT = 0

CCSDS_OMM_VERS = 2.0
CREATION_DATE  = 
ORIGINATOR     = 

OBJECT_NAME    = STARLINK-36514
OBJECT_ID      = 2026-020AA
CENTER_NAME    = EARTH
REF_FRAME      = TEME
TIME_SYSTEM    = UTC
MEAN_ELEMENT_THEORY = SGP/SGP4

EPOCH          = 2026-02-14T15:32:09.172032
MEAN_MOTION    = 15.82258942
ECCENTRICITY   = .0002508
INCLINATION    = 42.9973
RA_OF_ASC_NODE = 281.8317
ARG_OF_PERICENTER = 221.8782
MEAN_ANOMALY   = 138.1898

EPHEMERIS_TYPE = 0
CLASSIFICATION_TYPE = U
NORAD_CAT_ID   = 67641
ELEMENT_SET_NO = 999
REV_AT_EPOCH   = 245
BSTAR          = .22473E-2
MEAN_MOTION_DOT = .507169E-2
MEAN_MOTION_DDOT = 0

CCSDS_OMM_VERS = 2.0
CREATION_DATE  = 
ORIGINATOR     = 

OBJECT_NAME    = STARLINK-36556
OBJECT_ID      = 2026-020AB
CENTER_NAME    = EARTH
REF_FRAME      = TEME
TIME_SYSTEM    = UTC
MEAN_ELEMENT_THEORY = SGP/SGP4

EPOCH          = 2026-02-14T03:24:03.847680
MEAN_MOTION    = 15.81451029
ECCENTRICITY   = .00025911
INCLINATION    = 42.9972
RA_OF_ASC_NODE = 284.9215
ARG_OF_PERICENTER = 258.5613
MEAN_ANOMALY   = 101.4968

EPHEMERIS_TYPE = 0
CLASSIFICATION_TYPE = U
NORAD_CAT_ID   = 67642
ELEMENT_SET_NO = 999
REV_AT_EPOCH   = 237
BSTAR          = -.22104169E-2
MEAN_MOTION_DOT = -.432083E-2
MEAN_MOTION_DDOT = 0

CCSDS_OMM_VERS = 2.0
CREATION_DATE  = 
ORIGINATOR     = 

OBJECT_NAME    = STARLINK-36533
OBJECT_ID      = 2026-020AC
CENTER_NAME    = EARTH
REF_FRAME      = TEME
TIME_SYSTEM    = UTC
MEAN_ELEMENT_THEORY = SGP/SGP4

EPOCH          = 2026-02-14T14:00:01.999008
MEAN_MOTION    = 15.76364473
ECCENTRICITY   = .0001532
INCLINATION    = 42.9982
RA_OF_ASC_NODE = 282.4015
ARG_OF_PERICENTER = 269.7476
MEAN_ANOMALY   = 14.0632

EPHEMERIS_TYPE = 0
CLASSIFICATION_TYPE = U
NORAD_CAT_ID   = 67643
ELEMENT_SET_NO = 999
REV_AT_EPOCH   = 367
BSTAR          = -.35048E-3
MEAN_MOTION_DOT = -.57171E-3
MEAN_MOTION_DDOT = 0

CCSDS_OMM_VERS = 2.0
CREATION_DATE  = 
ORIGINATOR     = 

OBJECT_NAME    = STARLINK-36623
OBJECT_ID      = 2026-020AD
CENTER_NAME    = EARTH
REF_FRAME      = TEME
TIME_SYSTEM    = UTC
MEAN_ELEMENT_THEORY = SGP/SGP4

EPOCH          = 2026-02-14T14:00:01.999008
MEAN_MOTION    = 15.76303558
ECCENTRICITY   = .0001864
INCLINATION    = 42.9986
RA_OF_ASC_NODE = 282.3073
ARG_OF_PERICENTER = 243.5360
MEAN_ANOMALY   = 77.6119

EPHEMERIS_TYPE = 0
CLASSIFICATION_TYPE = U
NORAD_CAT_ID   = 67644
ELEMENT_SET_NO = 999
REV_AT_EPOCH   = 367
BSTAR          = .48665E-3
MEAN_MOTION_DOT = .79284E-3
MEAN_MOTION_DDOT = 0

CCSDS_OMM_VERS = 2.0
CREATION_DATE  = 
ORIGINATOR     = 

OBJECT_NAME    = STARLINK-36619
OBJECT_ID      = 2026-020AE
CENTER_NAME    = EARTH
REF_FRAME      = TEME
TIME_SYSTEM    = UTC
MEAN_ELEMENT_THEORY = SGP/SGP4

EPOCH          = 2026-02-14T14:00:01.999008
MEAN_MOTION    = 15.76347243
ECCENTRICITY   = .0001539
INCLINATION    = 42.9987
RA_OF_ASC_NODE = 282.2761
ARG_OF_PERICENTER = 257.7141
MEAN_ANOMALY   = 75.8613

EPHEMERIS_TYPE = 0
CLASSIFICATION_TYPE = U
NORAD_CAT_ID   = 67645
ELEMENT_SET_NO = 999
REV_AT_EPOCH   = 367
BSTAR          = -.13285E-3
MEAN_MOTION_DOT = -.22046E-3
MEAN_MOTION_DDOT = 0

CCSDS_OMM_VERS = 2.0
CREATION_DATE  = 
ORIGINATOR     = 

OBJECT_NAME    = ALSAT-3B
OBJECT_ID      = 2026-021A
CENTER_NAME    = EARTH
REF_FRAME      = TEME
TIME_SYSTEM    = UTC
MEAN_ELEMENT_THEORY = SGP/SGP4

EPOCH          = 2026-02-14T14:17:36.756384
MEAN_MOTION    = 15.23591460
ECCENTRICITY   = .0011998
INCLINATION    = 97.4718
RA_OF_ASC_NODE = 120.0318
ARG_OF_PERICENTER = 210.9081
MEAN_ANOMALY   = 149.1451

EPHEMERIS_TYPE = 0
CLASSIFICATION_TYPE = U
NORAD_CAT_ID   = 67646
ELEMENT_SET_NO = 999
REV_AT_EPOCH   = 220
BSTAR          = .26757E-3
MEAN_MOTION_DOT = .6343E-4
MEAN_MOTION_DDOT = 0

CCSDS_OMM_VERS = 2.0
CREATION_DATE  = 
ORIGINATOR     = 

OBJECT_NAME    = CZ-2C R/B
OBJECT_ID      = 2026-021B
CENTER_NAME    = EARTH
REF_FRAME      = TEME
TIME_SYSTEM    = UTC
MEAN_ELEMENT_THEORY = SGP/SGP4

EPOCH          = 2026-02-14T14:21:50.769792
MEAN_MOTION    = 15.23449907
ECCENTRICITY   = .0153725
INCLINATION    = 97.6561
RA_OF_ASC_NODE = 120.6024
ARG_OF_PERICENTER = 91.4869
MEAN_ANOMALY   = 270.3982

EPHEMERIS_TYPE = 0
CLASSIFICATION_TYPE = U
NORAD_CAT_ID   = 67647
ELEMENT_SET_NO = 999
REV_AT_EPOCH   = 218
BSTAR          = .35044E-3
MEAN_MOTION_DOT = .11586E-3
MEAN_MOTION_DDOT = 0

CCSDS_OMM_VERS = 2.0
CREATION_DATE  = 
ORIGINATOR     = 

OBJECT_NAME    = STARLINK-36719
OBJECT_ID      = 2026-022A
CENTER_NAME    = EARTH
REF_FRAME      = TEME
TIME_SYSTEM    = UTC
MEAN_ELEMENT_THEORY = SGP/SGP4

EPOCH          = 2026-02-14T14:00:01.999008
MEAN_MOTION    = 15.79757872
ECCENTRICITY   = .0001599
INCLINATION    = 97.2825
RA_OF_ASC_NODE = 78.4053
ARG_OF_PERICENTER = 109.3490
MEAN_ANOMALY   = 135.3397

EPHEMERIS_TYPE = 0
CLASSIFICATION_TYPE = U
NORAD_CAT_ID   = 67648
ELEMENT_SET_NO = 999
REV_AT_EPOCH   = 317
BSTAR          = -.11991E-1
MEAN_MOTION_DOT = -.1910686E-1
MEAN_MOTION_DDOT = 0

CCSDS_OMM_VERS = 2.0
CREATION_DATE  = 
ORIGINATOR     = 

OBJECT_NAME    = STARLINK-36342
OBJECT_ID      = 2026-022B
CENTER_NAME    = EARTH
REF_FRAME      = TEME
TIME_SYSTEM    = UTC
MEAN_ELEMENT_THEORY = SGP/SGP4

EPOCH          = 2026-02-14T14:00:01.999008
MEAN_MOTION    = 15.79698763
ECCENTRICITY   = .0001865
INCLINATION    = 97.2824
RA_OF_ASC_NODE = 78.4063
ARG_OF_PERICENTER = 96.4513
MEAN_ANOMALY   = 152.4912

EPHEMERIS_TYPE = 0
CLASSIFICATION_TYPE = U
NORAD_CAT_ID   = 67649
ELEMENT_SET_NO = 999
REV_AT_EPOCH   = 317
BSTAR          = -.12087E-1
MEAN_MOTION_DOT = -.1919758E-1
MEAN_MOTION_DDOT = 0

CCSDS_OMM_VERS = 2.0
CREATION_DATE  = 
ORIGINATOR     = 

OBJECT_NAME    = STARLINK-36703
OBJECT_ID      = 2026-022C
CENTER_NAME    = EARTH
REF_FRAME      = TEME
TIME_SYSTEM    = UTC
MEAN_ELEMENT_THEORY = SGP/SGP4

EPOCH          = 2026-02-14T14:00:01.999008
MEAN_MOTION    = 15.79788536
ECCENTRICITY   = .0001555
INCLINATION    = 97.2823
RA_OF_ASC_NODE = 78.4086
ARG_OF_PERICENTER = 90.5192
MEAN_ANOMALY   = 164.0544

EPHEMERIS_TYPE = 0
CLASSIFICATION_TYPE = U
NORAD_CAT_ID   = 67650
ELEMENT_SET_NO = 999
REV_AT_EPOCH   = 317
BSTAR          = -.11979E-1
MEAN_MOTION_DOT = -.1911385E-1
MEAN_MOTION_DDOT = 0

CCSDS_OMM_VERS = 2.0
CREATION_DATE  = 
ORIGINATOR     = 

OBJECT_NAME    = STARLINK-36696
OBJECT_ID      = 2026-022D
CENTER_NAME    = EARTH
REF_FRAME      = TEME
TIME_SYSTEM    = UTC
MEAN_ELEMENT_THEORY = SGP/SGP4

EPOCH          = 2026-02-14T14:00:01.999008
MEAN_MOTION    = 15.80655909
ECCENTRICITY   = .0001566
INCLINATION    = 97.2820
RA_OF_ASC_NODE = 78.4110
ARG_OF_PERICENTER = 78.3841
MEAN_ANOMALY   = 182.4988

EPHEMERIS_TYPE = 0
CLASSIFICATION_TYPE = U
NORAD_CAT_ID   = 67651
ELEMENT_SET_NO = 999
REV_AT_EPOCH   = 317
BSTAR          = -.11559E-1
MEAN_MOTION_DOT = -.1918369E-1
MEAN_MOTION_DDOT = 0

